{
  "norad_id": 57964,
  "name": "STARLINK-30396",
  "history": [
    {
      "epoch": "2026-03-28T17:19:48.063648Z",
      "apogee_km": 484.0606392534146,
      "perigee_km": 482.0107952924018,
      "latitude_deg": -2.2786413650463012e-05,
      "longitude_deg": 142.73785610737067,
      "height_km": 482.659391378092,
      "semi_major_axis_km": 6861.172717272908,
      "eccentricity": 0.00014938,
      "inclination_deg": 43.0011,
      "raan_deg": 228.8266,
      "arg_perigee_deg": 278.5986,
      "mean_anomaly_deg": 81.4696,
      "mean_motion_rev_day": 15.27584468
    },
    {
      "epoch": "2026-03-30T14:50:21.053472Z",
      "apogee_km": 484.32377241567247,
      "perigee_km": 481.76798179395064,
      "latitude_deg": 5.797545709741823e-06,
      "longitude_deg": 167.5232351568292,
      "height_km": 482.9279782136882,
      "semi_major_axis_km": 6861.182877104811,
      "eccentricity": 0.00018625,
      "inclination_deg": 43.0003,
      "raan_deg": 218.1184,
      "arg_perigee_deg": 265.2861,
      "mean_anomaly_deg": 94.7778,
      "mean_motion_rev_day": 15.27581075
    },
    {
      "epoch": "2026-03-30T17:58:39.576288Z",
      "apogee_km": 483.93428131342534,
      "perigee_km": 482.1422795536819,
      "latitude_deg": 2.807936734947352e-05,
      "longitude_deg": 119.5769879353696,
      "height_km": 482.9811588112739,
      "semi_major_axis_km": 6861.175280433554,
      "eccentricity": 0.00013059,
      "inclination_deg": 43.0005,
      "raan_deg": 217.3782,
      "arg_perigee_deg": 259.3073,
      "mean_anomaly_deg": 100.7632,
      "mean_motion_rev_day": 15.27583612
    },
    {
      "epoch": "2026-03-31T14:22:42.502656Z",
      "apogee_km": 484.43665285216775,
      "perigee_km": 481.7360753360599,
      "latitude_deg": -1.8477247976869273e-05,
      "longitude_deg": 167.93131460186225,
      "height_km": 482.7214459779243,
      "semi_major_axis_km": 6861.223364094113,
      "eccentricity": 0.0001968,
      "inclination_deg": 42.9983,
      "raan_deg": 212.5826,
      "arg_perigee_deg": 276.032,
      "mean_anomaly_deg": 84.0307,
      "mean_motion_rev_day": 15.27567554
    },
    {
      "epoch": "2026-04-01T01:21:48.023712Z",
      "apogee_km": 484.24895313496927,
      "perigee_km": 481.8840335148907,
      "latitude_deg": -1.0033478054689153e-05,
      "longitude_deg": 0.1198873850899619,
      "height_km": 482.8202332427791,
      "semi_major_axis_km": 6861.20349332493,
      "eccentricity": 0.00017234,
      "inclination_deg": 43.0004,
      "raan_deg": 209.9953,
      "arg_perigee_deg": 271.1277,
      "mean_anomaly_deg": 88.9377,
      "mean_motion_rev_day": 15.2757419
    },
    {
      "epoch": "2026-04-02T15:01:32.883456Z",
      "apogee_km": 483.8614554249143,
      "perigee_km": 482.30039112301074,
      "latitude_deg": 1.3876377618872508e-06,
      "longitude_deg": 144.77264325118767,
      "height_km": 482.98360763424836,
      "semi_major_axis_km": 6861.217923273962,
      "eccentricity": 0.00011376,
      "inclination_deg": 43.0005,
      "raan_deg": 201.1317,
      "arg_perigee_deg": 260.6969,
      "mean_anomaly_deg": 99.3754,
      "mean_motion_rev_day": 15.27569371
    },
    {
      "epoch": "2026-04-03T16:08:04.858944Z",
      "apogee_km": 483.88555792373336,
      "perigee_km": 482.5078021207846,
      "latitude_deg": 2.5954479408285062e-05,
      "longitude_deg": 121.20095331457516,
      "height_km": 483.3429719834244,
      "semi_major_axis_km": 6861.333680022259,
      "eccentricity": 0.0001004,
      "inclination_deg": 43.0009,
      "raan_deg": 195.2244,
      "arg_perigee_deg": 237.5113,
      "mean_anomaly_deg": 122.5642,
      "mean_motion_rev_day": 15.27530714
    },
    {
      "epoch": "2026-04-04T15:40:22.216224Z",
      "apogee_km": 483.96950799002116,
      "perigee_km": 481.859048616815,
      "latitude_deg": 1.3318420214343203e-05,
      "longitude_deg": 121.61693952508108,
      "height_km": 483.416341108062,
      "semi_major_axis_km": 6861.051278303417,
      "eccentricity": 0.0001538,
      "inclination_deg": 43.0024,
      "raan_deg": 189.6794,
      "arg_perigee_deg": 226.5696,
      "mean_anomaly_deg": 133.5028,
      "mean_motion_rev_day": 15.27625025
    },
    {
      "epoch": "2026-04-04T23:31:11.013312Z",
      "apogee_km": 484.763577923859,
      "perigee_km": 481.4313507938996,
      "latitude_deg": 3.3046035843598145e-05,
      "longitude_deg": 1.749678804181641,
      "height_km": 483.1586212264854,
      "semi_major_axis_km": 6861.234464358879,
      "eccentricity": 0.00024283,
      "inclination_deg": 43.0059,
      "raan_deg": 187.8377,
      "arg_perigee_deg": 260.2176,
      "mean_anomaly_deg": 99.8402,
      "mean_motion_rev_day": 15.27563847
    },
    {
      "epoch": "2026-04-05T16:46:55.778016Z",
      "apogee_km": 483.8559608311625,
      "perigee_km": 482.46311763369886,
      "latitude_deg": 9.935098211405353e-06,
      "longitude_deg": 98.04069029362448,
      "height_km": 483.4635939627546,
      "semi_major_axis_km": 6861.29653923243,
      "eccentricity": 0.0001015,
      "inclination_deg": 43.0011,
      "raan_deg": 183.7742,
      "arg_perigee_deg": 220.7038,
      "mean_anomaly_deg": 139.3738,
      "mean_motion_rev_day": 15.27543117
    },
    {
      "epoch": "2026-04-05T16:46:55.778880Z",
      "apogee_km": 483.85623228823897,
      "perigee_km": 482.4628401876598,
      "latitude_deg": 1.1982872204121884e-05,
      "longitude_deg": 98.04068886752157,
      "height_km": 483.4637989985728,
      "semi_major_axis_km": 6861.296536237949,
      "eccentricity": 0.00010154,
      "inclination_deg": 43.0011,
      "raan_deg": 183.7742,
      "arg_perigee_deg": 220.7038,
      "mean_anomaly_deg": 139.3738,
      "mean_motion_rev_day": 15.27543118
    },
    {
      "epoch": "2026-04-07T06:26:40.608384Z",
      "apogee_km": 483.9252620433426,
      "perigee_km": 482.1982983103717,
      "latitude_deg": 4.279746064230717e-06,
      "longitude_deg": -117.30135472350489,
      "height_km": 482.76466652760274,
      "semi_major_axis_km": 6861.198780176856,
      "eccentricity": 0.00012585,
      "inclination_deg": 43.0026,
      "raan_deg": 174.9157,
      "arg_perigee_deg": 274.9158,
      "mean_anomaly_deg": 85.155,
      "mean_motion_rev_day": 15.27575764
    },
    {
      "epoch": "2026-04-08T13:49:47.688960Z",
      "apogee_km": 484.0286120376668,
      "perigee_km": 481.99661396827923,
      "latitude_deg": -2.969896802050012e-05,
      "longitude_deg": 123.24325424466826,
      "height_km": 482.86239652064705,
      "semi_major_axis_km": 6861.149613002973,
      "eccentricity": 0.00014808,
      "inclination_deg": 43.0046,
      "raan_deg": 167.5288,
      "arg_perigee_deg": 265.9072,
      "mean_anomaly_deg": 94.161,
      "mean_motion_rev_day": 15.27592184
    },
    {
      "epoch": "2026-04-09T05:31:21.979200Z",
      "apogee_km": 483.9427024261504,
      "perigee_km": 482.1690840632464,
      "latitude_deg": 2.221258356682271e-06,
      "longitude_deg": -116.48737249125654,
      "height_km": 482.89947859585993,
      "semi_major_axis_km": 6861.192893244698,
      "eccentricity": 0.00012925,
      "inclination_deg": 43.0032,
      "raan_deg": 163.8355,
      "arg_perigee_deg": 265.6911,
      "mean_anomaly_deg": 94.3793,
      "mean_motion_rev_day": 15.2757773
    }
  ]
}